     2.11           N: GPS NAV DATA                         RINEX VERSION / TYPE
teqc  2019Feb25     CORS-ADM Account    20260508 02:45:01UTCPGM / RUN BY / DATE
Linux 2.4.21-27.ELsmp|Opteron|gcc|Linux 64|=+               COMMENT
     2.10           N: GPS NAV DATA                         COMMENT
rvacn.e(1404.07)                        2026-05-08T02:27 UTCCOMMENT
This file contains the validated broadcast navigation       COMMENT
messages from the following files:                          COMMENT
aaaa1280.26n, abmf128b.26n, albh128b.26n, alic128b.26n,     COMMENT
areq128b.26n, aruc128b.26n, baie128b.26n, bake128b.26n,     COMMENT
brew128b.26n, brst128b.26n, brux128b.26n, bshm128b.26n,     COMMENT
bucu128b.26n, cebr128b.26n, chpi128b.26n, chum128b.26n,     COMMENT
chur128b.26n, ckis128b.26n, coco128b.26n, cro1128b.26n,     COMMENT
darw128b.26n, dav1128b.26n, dgar128b.26n, djig128b.26n,     COMMENT
dlf1128b.26n, drao128b.26n, dubo128b.26n, ebre128b.26n,     COMMENT
faa1128b.26n, fair128b.26n, falk128b.26n, flin128b.26n,     COMMENT
glps128b.26n, glsv128b.26n, gode128b.26n, guam128b.26n,     COMMENT
harb128b.26n, hers128b.26n, hlfx128b.26n, hob2128b.26n,     COMMENT
hofn128b.26n, holb128b.26n, hrao128b.26n, iqal128b.26n,     COMMENT
ista128b.26n, joze128b.26n, jplm128b.26n, karr128b.26n,     COMMENT
kat1128b.26n, kiru128b.26n, koug128b.26n, kour128b.26n,     COMMENT
lmmf128b.26n, lpal128b.26n, m0se128b.26n, mac1128b.26n,     COMMENT
maju128b.26n, mal2128b.26n, mar6128b.26n, mas1128b.26n,     COMMENT
mat1128b.26n, mate128b.26n, maw1128b.26n, mcm4128b.26n,     COMMENT
mdo1128b.26n, medi128b.26n, met3128b.26n, mkea128b.26n,     COMMENT
mobs128b.26n, mro1128b.26n, nano128b.26n, naur128b.26n,     COMMENT
nico128b.26n, nist128b.26n, nklg128b.26n, nlib128b.26n,     COMMENT
nnor128b.26n, not1128b.26n, nrc1128b.26n, onsa128b.26n,     COMMENT
orid128b.26n, palm128b.26n, pert128b.26n, picl128b.26n,     COMMENT
pie1128b.26n, pimo128b.26n, pohn128b.26n, prds128b.26n,     COMMENT
ptvl128b.26n, qaq1128b.26n, reun128b.26n, reyk128b.26n,     COMMENT
riga128b.26n, sant128b.26n, sask128b.26n, sch2128b.26n,     COMMENT
scor128b.26n, solo128b.26n, stj3128b.26n, stjo128b.26n,     COMMENT
stpm128b.26n, suth128b.26n, suwn128b.26n, sydn128b.26n,     COMMENT
thtg128b.26n, thu2128b.26n, tid1128b.26n, tow2128b.26n,     COMMENT
unbj128b.26n, usud128b.26n, vacs128b.26n, vald128b.26n,     COMMENT
vill128b.26n, vis0128b.26n, warn128b.26n, whit128b.26n,     COMMENT
will128b.26n, wsrt128b.26n, wtzr128b.26n, xmis128b.26n,     COMMENT
yar2128b.26n, yarr128b.26n, yebe128b.26n, yell128b.26n,     COMMENT
zim2128b.26n, zimm128b.26n                                  COMMENT
    1.6760D-08  2.2350D-08 -1.1920D-07 -1.1920D-07          ION ALPHA
    1.1060D+05  9.8300D+04 -1.3110D+05 -1.9660D+05          ION BETA
    0.000000000000D+00 8.881784197000D-16    61440     2418 DELTA-UTC: A0,A1,T,W
                                                            END OF HEADER
17 26  5  8  2  0  0.0-1.301998272538D-04-8.299139153678D-12 0.000000000000D+00
    1.000000000000D+02 6.200000000000D+01 4.206960951096D-09 2.575168073767D+00
    3.360211849213D-06 1.259503385518D-02 8.361414074898D-06 5.153633607864D+03
    4.392000000000D+05 1.322478055954D-07 9.414935134868D-01 4.470348358154D-08
    9.584572599120D-01 2.145625000000D+02-1.110481262173D+00-7.614602893061D-09
   -3.107272287506D-10 1.000000000000D+00 2.417000000000D+03 0.000000000000D+00
    2.800000000000D+00 0.000000000000D+00-1.117587089539D-08 1.000000000000D+02
    4.320180000000D+05 4.000000000000D+00
18 26  5  8  2  0  0.0-3.579780459404D-04 9.322320693173D-12 0.000000000000D+00
    3.000000000000D+01 6.325000000000D+01 4.183031382905D-09 5.980331909857D-01
    3.352761268616D-06 5.933917011134D-03 5.237758159637D-06 5.153630382538D+03
    4.392000000000D+05 4.284083843231D-08 1.953178111445D+00 1.266598701477D-07
    9.711059509865D-01 2.839687500000D+02-2.875107205150D+00-8.054621221590D-09
    1.139333172086D-10 1.000000000000D+00 2.417000000000D+03 0.000000000000D+00
    2.000000000000D+00 0.000000000000D+00-8.381903171539D-09 2.860000000000D+02
    4.320190000000D+05 4.000000000000D+00
19 26  5  8  2  0  0.0 6.992062553763D-04 1.023181539495D-12 0.000000000000D+00
    7.900000000000D+01 6.615625000000D+01 4.239462304908D-09-1.975036063471D+00
    3.376975655556D-06 1.145192387048D-02 8.990988135338D-06 5.153740919113D+03
    4.392000000000D+05-1.359730958939D-07 9.853332754974D-01-1.639127731323D-07
    9.575912050945D-01 2.067812500000D+02 2.969085561417D+00-7.835683530528D-09
   -9.821837690392D-11 1.000000000000D+00 2.417000000000D+03 0.000000000000D+00
    2.000000000000D+00 0.000000000000D+00-1.536682248116D-08 7.900000000000D+01
    4.320180000000D+05 4.000000000000D+00
20 26  5  8  2  0  0.0 1.444378867745D-04 1.716671249596D-11 0.000000000000D+00
    6.100000000000D+01-8.418750000000D+01 4.545546483114D-09-1.029236810496D+00
   -4.230067133904D-06 2.097055083141D-03 7.951632142067D-06 5.153604875565D+03
    4.392000000000D+05-1.676380634308D-08-2.277423104454D+00 5.029141902924D-08
    9.609556489628D-01 2.276875000000D+02-1.865701184023D+00-7.996404510916D-09
    1.389343586023D-10 1.000000000000D+00 2.417000000000D+03 0.000000000000D+00
    2.800000000000D+00 0.000000000000D+00-8.847564458847D-09 6.100000000000D+01
    4.320180000000D+05 4.000000000000D+00
21 26  5  8  2  0  0.0 4.148185253140D-04-5.684341886080D-13 0.000000000000D+00
    2.310000000000D+02-4.212500000000D+01 4.586262464810D-09-1.348341636020D+00
   -2.447515726090D-06 7.689283229410D-04 3.285706043240D-06 5.153546804430D+03
    4.392000000000D+05-2.421438694000D-08 3.000532229010D+00-1.862645149230D-08
    9.638022095910D-01 3.172187500000D+02-1.738725199280D-01-8.277844805460D-09
    7.143154683920D-11 1.000000000000D+00 2.417000000000D+03 0.000000000000D+00
    2.000000000000D+00 0.000000000000D+00-9.778887033460D-09 4.870000000000D+02
    4.320180000000D+05 4.000000000000D+00
22 26  5  8  2  0  0.0-6.004236638546D-06 6.480149750132D-12 0.000000000000D+00
    6.100000000000D+01 1.131250000000D+01 4.561975738887D-09-3.065284374244D+00
    6.016343832016D-07 1.194171165116D-02 7.506459951401D-06 5.153719600677D+03
    4.392000000000D+05 5.774199962616D-08-7.121861764986D-02 9.685754776001D-08
    9.578001302771D-01 2.344687500000D+02-9.944952593251D-01-7.691748963647D-09
   -3.403713206889D-10 1.000000000000D+00 2.417000000000D+03 0.000000000000D+00
    2.000000000000D+00 0.000000000000D+00-1.117587089539D-08 6.100000000000D+01
    4.320180000000D+05 4.000000000000D+00
23 26  5  8  2  0  0.0 6.449539214373D-04 4.320099833421D-12 0.000000000000D+00
    1.000000000000D+00-2.981250000000D+01 4.038025342821D-09-5.817779460267D-01
   -1.452863216400D-06 6.168502266519D-03 3.976747393608D-06 5.153713325500D+03
    4.392000000000D+05 9.126961231232D-08 2.961370855611D+00 1.098960638046D-07
    9.888649762526D-01 3.161250000000D+02-2.742555063844D+00-7.997118826385D-09
    8.357490980188D-11 1.000000000000D+00 2.417000000000D+03 0.000000000000D+00
    2.000000000000D+00 0.000000000000D+00-8.847564458847D-09 5.130000000000D+02
    4.320200000000D+05 4.000000000000D+00
24 26  5  8  2  0  0.0 1.988373696804D-07 1.830358087318D-11 0.000000000000D+00
    9.700000000000D+01-2.331250000000D+01 5.390581682221D-09 7.877030610514D-01
   -1.030042767525D-06 1.804808643647D-02 8.499249815941D-06 5.153640283585D+03
    4.392000000000D+05-1.955777406693D-07-1.319381343997D+00 1.527369022369D-07
    9.346866946411D-01 2.064687500000D+02 1.145107106764D+00-8.615358864278D-09
    1.114332130692D-10 1.000000000000D+00 2.417000000000D+03 0.000000000000D+00
    2.000000000000D+00 0.000000000000D+00 2.328306436539D-09 9.700000000000D+01
    4.320210000000D+05 4.000000000000D+00
25 26  5  8  2  0  0.0 4.243659786880D-04-2.842170943040D-12 0.000000000000D+00
    9.100000000000D+01 1.228125000000D+01 5.046995941925D-09-1.016588452967D+00
    6.966292858124D-07 1.286726735998D-02 7.048249244690D-06 5.153693073273D+03
    4.392000000000D+05-9.313225746155D-09-1.859666304623D-01 2.998858690262D-07
    9.475613846151D-01 2.363750000000D+02 1.160574776609D+00-8.294274061236D-09
   -2.714398779890D-10 1.000000000000D+00 2.417000000000D+03 0.000000000000D+00
    2.000000000000D+00 0.000000000000D+00 5.587935447693D-09 9.100000000000D+01
    4.320180000000D+05 4.000000000000D+00
26 26  5  8  2  0  0.0-3.625964745879D-04-4.206412995700D-12 0.000000000000D+00
    7.900000000000D+01 7.593750000000D+00 5.334865075687D-09-1.848183625089D+00
    3.930181264877D-07 1.105395471677D-02 6.701797246933D-06 5.153748079300D+03
    4.392000000000D+05 1.154839992523D-07-2.617029717449D-01-1.098960638046D-07
    9.282738586522D-01 2.326875000000D+02 7.142046699027D-01-8.224628303067D-09
   -9.464679956196D-11 1.000000000000D+00 2.417000000000D+03 0.000000000000D+00
    2.000000000000D+00 0.000000000000D+00 6.519258022308D-09 7.900000000000D+01
    4.320180000000D+05 4.000000000000D+00
27 26  5  8  2  0  0.0-1.414599828422D-04-1.716671249596D-11 0.000000000000D+00
    1.900000000000D+01 4.940625000000D+01 4.381611083118D-09 2.715968457342D+00
    2.432614564896D-06 1.434712461196D-02 8.285045623779D-06 5.153674278259D+03
    4.392000000000D+05 4.842877388000D-08 8.683803818142D-01-1.471489667892D-07
    9.519554711893D-01 2.129687500000D+02 8.962774264438D-01-7.752822936194D-09
   -2.150089559860D-10 1.000000000000D+00 2.417000000000D+03 0.000000000000D+00
    2.000000000000D+00 0.000000000000D+00 2.328306436539D-09 1.900000000000D+01
    4.320220000000D+05 4.000000000000D+00
